$$SOE
2460728.500000000, A.D. 2025-Feb-22 00:00:00.0000, -4.593212224483712E+08, 8.490122246731153E+07, 1.540021063913584E+08,
2460735.500000000, A.D. 2025-Mar-01 00:00:00.0000, -4.618839865201706E+08, 7.597013939458297E+07, 1.543038952517714E+08,
2460742.500000000, A.D. 2025-Mar-08 00:00:00.0000, -4.642594415373389E+08, 6.700820517048746E+07, 1.545431099802706E+08,
2460749.500000000, A.D. 2025-Mar-15 00:00:00.0000, -4.664477684697497E+08, 5.801922118571745E+07, 1.547200354368906E+08,
2460756.500000000, A.D. 2025-Mar-22 00:00:00.0000, -4.684491958934408E+08, 4.900695247766332E+07, 1.548349695192322E+08,
2460763.500000000, A.D. 2025-Mar-29 00:00:00.0000, -4.702639994254166E+08, 3.997512659872122E+07, 1.548882226769539E+08,
2460770.500000000, A.D. 2025-Apr-05 00:00:00.0000, -4.718924995334587E+08, 3.092743338587661E+07, 1.548801173663140E+08,
2460777.500000000, A.D. 2025-Apr-12 00:00:00.0000, -4.733350596447632E+08, 2.186752573109604E+07, 1.548109876286147E+08,
2460784.500000000, A.D. 2025-Apr-19 00:00:00.0000, -4.745920847406523E+08, 1.279902046790688E+07, 1.546811787378023E+08,
2460791.500000000, A.D. 2025-Apr-26 00:00:00.0000, -4.756640201657866E+08, 3.725499169683188E+06, 1.544910468760726E+08,
2460798.500000000, A.D. 2025-May-03 00:00:00.0000, -4.765513505373676E+08, -5.349491121823385E+06, 1.542409588284869E+08,
2460805.500000000, A.D. 2025-May-10 00:00:00.0000, -4.772545987242076E+08, -1.442243722963738E+07, 1.539312916940703E+08,
2460812.500000000, A.D. 2025-May-17 00:00:00.0000, -4.777743248570627E+08, -2.348985927821797E+07, 1.535624326057973E+08,
2460819.500000000, A.D. 2025-May-24 00:00:00.0000, -4.781111251943128E+08, -3.254831028905374E+07, 1.531347784381036E+08,
2460826.500000000, A.D. 2025-May-31 00:00:00.0000, -4.782656304231427E+08, -4.159437562528422E+07, 1.526487354880366E+08,
2460833.500000000, A.D. 2025-Jun-07 00:00:00.0000, -4.782385037950023E+08, -5.062467108180235E+07, 1.521047192642797E+08,
2460840.500000000, A.D. 2025-Jun-14 00:00:00.0000, -4.780304414582007E+08, -5.963584028935654E+07, 1.515031545456698E+08,
2460847.500000000, A.D. 2025-Jun-21 00:00:00.0000, -4.776421737703179E+08, -6.862455470542738E+07, 1.508444753301467E+08,
2460854.500000000, A.D. 2025-Jun-28 00:00:00.0000, -4.770744644612584E+08, -7.758751442747119E+07, 1.501291245311725E+08,
2460861.500000000, A.D. 2025-Jul-05 00:00:00.0000, -4.763281091612133E+08, -8.652144767242882E+07, 1.493575537359403E+08,
2460868.500000000, A.D. 2025-Jul-12 00:00:00.0000, -4.754039344825460E+08, -9.542310972925034E+07, 1.485302230679499E+08,
2460875.500000000, A.D. 2025-Jul-19 00:00:00.0000, -4.743027974651639E+08, -1.042892819609150E+08, 1.476476010893338E+08,
2460882.500000000, A.D. 2025-Jul-26 00:00:00.0000, -4.730255851748054E+08, -1.131167709133304E+08, 1.467101647189934E+08,
2460889.500000000, A.D. 2025-Aug-02 00:00:00.0000, -4.715732143879492E+08, -1.219024075099748E+08, 1.457183991621315E+08,
2460896.500000000, A.D. 2025-Aug-09 00:00:00.0000, -4.699466313388820E+08, -1.306430463473728E+08, 1.446727978475900E+08,
2460903.500000000, A.D. 2025-Aug-16 00:00:00.0000, -4.681468114509507E+08, -1.393355651550827E+08, 1.435738623605554E+08,
2460910.500000000, A.D. 2025-Aug-23 00:00:00.0000, -4.661747587584062E+08, -1.479768644041151E+08, 1.424221023449824E+08,
2460917.500000000, A.D. 2025-Aug-30 00:00:00.0000, -4.640315046888499E+08, -1.565638663501005E+08, 1.412180354037383E+08,
2460924.500000000, A.D. 2025-Sep-06 00:00:00.0000, -4.617181076231854E+08, -1.650935125114636E+08, 1.399621872080427E+08,
2460931.500000000, A.D. 2025-Sep-13 00:00:00.0000, -4.592356549030881E+08, -1.735627620665797E+08, 1.386550917665442E+08,
2460938.500000000, A.D. 2025-Sep-20 00:00:00.0000, -4.565852640130557E+08, -1.819685928152868E+08, 1.372972914199239E+08,
2460945.500000000, A.D. 2025-Sep-27 00:00:00.0000, -4.537680818782890E+08, -1.903080015930472E+08, 1.358893367184058E+08,
2460952.500000000, A.D. 2025-Oct-04 00:00:00.0000, -4.507852842937656E+08, -1.985780035984432E+08, 1.344317864107803E+08,
2460959.500000000, A.D. 2025-Oct-11 00:00:00.0000, -4.476380758570616E+08, -2.067756315777948E+08, 1.329252075017978E+08,
2460966.500000000, A.D. 2025-Oct-18 00:00:00.0000, -4.443276901210148E+08, -2.148979351423208E+08, 1.313701753295100E+08,
2460973.500000000, A.D. 2025-Oct-25 00:00:00.0000, -4.408553898268878E+08, -2.229419802074143E+08, 1.297672736507813E+08,
2460980.500000000, A.D. 2025-Nov-01 00:00:00.0000, -4.372224671787568E+08, -2.309048485386452E+08, 1.281170947325882E+08,
2460987.500000000, A.D. 2025-Nov-08 00:00:00.0000, -4.334302441245664E+08, -2.387836374356710E+08, 1.264202394431083E+08,
2460994.500000000, A.D. 2025-Nov-15 00:00:00.0000, -4.294800724957170E+08, -2.465754596121254E+08, 1.246773173237541E+08,
2461001.500000000, A.D. 2025-Nov-22 00:00:00.0000, -4.253733336017924E+08, -2.542774430507507E+08, 1.228889466224473E+08,
2461008.500000000, A.D. 2025-Nov-29 00:00:00.0000, -4.211114374322921E+08, -2.618867296982898E+08, 1.210557543939558E+08,
2461015.500000000, A.D. 2025-Dec-06 00:00:00.0000, -4.166958237410451E+08, -2.694004731365084E+08, 1.191783768641055E+08,
2461022.500000000, A.D. 2025-Dec-13 00:00:00.0000, -4.121279645788125E+08, -2.768158386014450E+08, 1.172574597423775E+08,
2461029.500000000, A.D. 2025-Dec-20 00:00:00.0000, -4.074093647817364E+08, -2.841300043296416E+08, 1.152936582466274E+08,
2461036.500000000, A.D. 2025-Dec-27 00:00:00.0000, -4.025415614903904E+08, -2.913401616406303E+08, 1.132876371506223E+08,
2461043.500000000, A.D. 2026-Jan-03 00:00:00.0000, -3.975261241588975E+08, -2.984435143711370E+08, 1.112400709379509E+08,
2461050.500000000, A.D. 2026-Jan-10 00:00:00.0000, -3.923646549443647E+08, -3.054372783399513E+08, 1.091516439966748E+08,
2461057.500000000, A.D. 2026-Jan-17 00:00:00.0000, -3.870587892442058E+08, -3.123186809352164E+08, 1.070230508259187E+08,
2461064.500000000, A.D. 2026-Jan-24 00:00:00.0000, -3.816101963036245E+08, -3.190849608015509E+08, 1.048549962491713E+08,
2461071.500000000, A.D. 2026-Jan-31 00:00:00.0000, -3.760205798698962E+08, -3.257333676343566E+08, 1.026481956315591E+08,
2461078.500000000, A.D. 2026-Feb-07 00:00:00.0000, -3.702916788318688E+08, -3.322611621386321E+08, 1.004033750907379E+08,
2461085.500000000, A.D. 2026-Feb-14 00:00:00.0000, -3.644252675915036E+08, -3.386656161677248E+08, 9.812127167689681E+07,
2461092.500000000, A.D. 2026-Feb-21 00:00:00.0000, -3.584231557797733E+08, -3.449440124652347E+08, 9.580263353344142E+07,
2461099.500000000, A.D. 2026-Feb-28 00:00:00.0000, -3.522871884013994E+08, -3.510936428569275E+08, 9.344822023197553E+07,
2461106.500000000, A.D. 2026-Mar-07 00:00:00.0000, -3.460192484663432E+08, -3.571118068435895E+08, 9.105880331084126E+07,
2461113.500000000, A.D. 2026-Mar-14 00:00:00.0000, -3.396212593323667E+08, -3.629958129296637E+08, 8.863516657213476E+07,
2461120.500000000, A.D. 2026-Mar-21 00:00:00.0000, -3.330951849765933E+08, -3.687429797917175E+08, 8.617810621088263E+07,
2461127.500000000, A.D. 2026-Mar-28 00:00:00.0000, -3.264430302058758E+08, -3.743506362592307E+08, 8.368843104485267E+07,
2461134.500000000, A.D. 2026-Apr-04 00:00:00.0000, -3.196668414094437E+08, -3.798161210744461E+08, 8.116696282134165E+07,
2461141.500000000, A.D. 2026-Apr-11 00:00:00.0000, -3.127687075794870E+08, -3.851367827928568E+08, 7.861453654631534E+07,
2461148.500000000, A.D. 2026-Apr-18 00:00:00.0000, -3.057507614401252E+08, -3.903099798331738E+08, 7.603200082081038E+07,
2461155.500000000, A.D. 2026-Apr-25 00:00:00.0000, -2.986151806388928E+08, -3.953330806643479E+08, 7.342021818175611E+07,
2461162.500000000, A.D. 2026-May-02 00:00:00.0000, -2.913641889700272E+08, -4.002034641613597E+08, 7.078006544209015E+07,
2461169.500000000, A.D. 2026-May-09 00:00:00.0000, -2.840000575047355E+08, -4.049185201978966E+08, 6.811243401329209E+07,
2461176.500000000, A.D. 2026-May-16 00:00:00.0000, -2.765251052500196E+08, -4.094756503393954E+08, 6.541823018680301E+07,
2461183.500000000, A.D. 2026-May-23 00:00:00.0000, -2.689416992835193E+08, -4.138722676158242E+08, 6.269837545282391E+07,
2461190.500000000, A.D. 2026-May-30 00:00:00.0000, -2.612522564416220E+08, -4.181057950563532E+08, 5.995380707277222E+07,
2461197.500000000, A.D. 2026-Jun-06 00:00:00.0000, -2.534592468765666E+08, -4.221736662620355E+08, 5.718547866648574E+07,
2461204.500000000, A.D. 2026-Jun-13 00:00:00.0000, -2.455651958157840E+08, -4.260733278215830E+08, 5.439436049400595E+07,
2461211.500000000, A.D. 2026-Jun-20 00:00:00.0000, -2.375726840245617E+08, -4.298022406481802E+08, 5.158143971691187E+07,
2461218.500000000, A.D. 2026-Jun-27 00:00:00.0000, -2.294843486704121E+08, -4.333578805806039E+08, 4.874772076684484E+07,
2461225.500000000, A.D. 2026-Jul-04 00:00:00.0000, -2.213028845890389E+08, -4.367377390267105E+08, 4.589422575731368E+07,
2461232.500000000, A.D. 2026-Jul-11 00:00:00.0000, -2.130310456976320E+08, -4.399393237843908E+08, 4.302199490397213E+07,
2461239.500000000, A.D. 2026-Jul-18 00:00:00.0000, -2.046716464623445E+08, -4.429601600174222E+08, 4.013208694613403E+07,
2461246.500000000, A.D. 2026-Jul-25 00:00:00.0000, -1.962275633949326E+08, -4.457977913864074E+08, 3.722557956661198E+07,
2461253.500000000, A.D. 2026-Aug-01 00:00:00.0000, -1.877017365293376E+08, -4.484497813854606E+08, 3.430356980055761E+07,
2461260.500000000, A.D. 2026-Aug-08 00:00:00.0000, -1.790971706613348E+08, -4.509137149231703E+08, 3.136717440965024E+07,
2461267.500000000, A.D. 2026-Aug-15 00:00:00.0000, -1.704169359336387E+08, -4.531871997009582E+08, 2.841753021944502E+07,
2461274.500000000, A.D. 2026-Aug-22 00:00:00.0000, -1.616641685250201E+08, -4.552678661719682E+08, 2.545579458867744E+07,
2461281.500000000, A.D. 2026-Aug-29 00:00:00.0000, -1.528420737302125E+08, -4.571533674579419E+08, 2.248314610745135E+07,
2461288.500000000, A.D. 2026-Sep-05 00:00:00.0000, -1.439539292947971E+08, -4.588413820976435E+08, 1.950078509333980E+07,
$$EOE